NORAD_CAT_ID,OBJECT_NAME,OBJECT_TYPE,EPOCH,MEAN_MOTION,ECCENTRICITY,INCLINATION,RA_OF_ASC_NODE,ARG_OF_PERICENTER,MEAN_ANOMALY,BSTAR,MEAN_MOTION_DOT,MEAN_MOTION_DDOT,TLE_LINE0,TLE_LINE1,TLE_LINE2,SEMIMAJOR_AXIS,PERIOD,APOGEE,PERIGEE,DECAYED
52658.0,STARLINK-4082,PAYLOAD,2023-12-10 21:47:12,15.08841052,0.0001492,53.2172,234.2639,81.345,278.7711,4.6398e-05,4.51e-06,0.0,0 STARLINK-4082,1 52658U 22053C   23344.90778075  .00000451  00000-0  46398-4 0  9991,2 52658  53.2172 234.2639 0001492  81.3450 278.7711 15.08841052 87477,6917.877,95.437,540.774,538.71,0.0
52658.0,STARLINK-4082,PAYLOAD,2023-12-10 23:22:37,15.08791107,0.0001784,53.2171,233.9648,106.4519,253.6669,0.0015414,0.00024296,0.0,0 STARLINK-4082,1 52658U 22053C   23344.97404118  .00024296  00000-0  15414-2 0  9998,2 52658  53.2171 233.9648 0001784 106.4519 253.6669 15.08791107 87481,6918.03,95.441,541.129,538.661,0.0
52658.0,STARLINK-4082,PAYLOAD,2023-12-11 20:02:36,15.08839756,0.0001552,53.2167,230.1007,82.9993,277.1176,4.428e-05,4.17e-06,0.0,0 STARLINK-4082,1 52658U 22053C   23345.83514224  .00000417  00000-0  44280-4 0  9998,2 52658  53.2167 230.1007 0001552  82.9993 277.1176 15.08839756 87613,6917.881,95.438,540.82,538.672,0.0
52658.0,STARLINK-4082,PAYLOAD,2023-12-11 21:37:59,15.08837721,0.000171,53.2168,229.8071,100.1209,259.9976,0.00010023,1.307e-05,0.0,0 STARLINK-4082,1 52658U 22053C   23345.90138258  .00001307  00000-0  10023-3 0  9991,2 52658  53.2168 229.8071 0001710 100.1209 259.9976 15.08837721 87626,6917.887,95.438,540.935,538.569,0.0
52658.0,STARLINK-4082,PAYLOAD,2023-12-12 21:28:46,15.08841058,0.000176,53.2176,225.349,110.1434,249.9748,0.0001004,1.31e-05,0.0,0 STARLINK-4082,1 52658U 22053C   23346.89498250  .00001310  00000-0  10040-3 0  9994,2 52658  53.2176 225.3490 0001760 110.1434 249.9748 15.08841058 87777,6917.877,95.437,540.96,538.525,0.0
52658.0,STARLINK-4082,PAYLOAD,2023-12-13 21:19:33,15.08847478,0.0001413,53.2158,220.8867,94.3278,265.7876,0.00011723,1.579e-05,0.0,0 STARLINK-4082,1 52658U 22053C   23347.88857827  .00001579  00000-0  11723-3 0  9999,2 52658  53.2158 220.8867 0001413  94.3278 265.7876 15.08847478 87926,6917.858,95.437,540.7,538.745,0.0
52658.0,STARLINK-4082,PAYLOAD,2023-12-14 21:10:20,15.08842867,0.0001503,53.2151,216.4245,98.6923,261.4239,-5.1251e-05,-1.104e-05,0.0,0 STARLINK-4082,1 52658U 22053C   23348.88217871 -.00001104  00000-0 -51251-4 0  9996,2 52658  53.2151 216.4245 0001503  98.6923 261.4239 15.08842867 88074,6917.872,95.437,540.776,538.697,0.0
52658.0,STARLINK-4082,PAYLOAD,2023-12-14 22:45:43,15.08842607,0.0001484,53.2151,216.1279,93.3633,266.7529,-4.8887e-05,-1.066e-05,0.0,0 STARLINK-4082,1 52658U 22053C   23348.94841894 -.00001066  00000-0 -48887-4 0  9999,2 52658  53.2151 216.1279 0001484  93.3633 266.7529 15.08842607 88089,6917.872,95.437,540.764,538.711,0.0
52658.0,STARLINK-4082,PAYLOAD,2023-12-15 19:25:45,15.08834725,0.0001502,53.2161,212.2629,79.8299,280.2862,-6.1961e-05,-1.274e-05,0.0,0 STARLINK-4082,1 52658U 22053C   23349.80955393 -.00001274  00000-0 -61961-4 0  9994,2 52658  53.2161 212.2629 0001502  79.8299 280.2862 15.08834725 88212,6917.897,95.438,540.801,538.722,0.0
52658.0,STARLINK-4082,PAYLOAD,2023-12-15 22:36:31,15.08825595,0.0001481,53.2164,211.6683,78.5786,281.5372,5.059e-05,5.17e-06,0.0,0 STARLINK-4082,1 52658U 22053C   23349.94203663  .00000517  00000-0  50590-4 0  9998,2 52658  53.2164 211.6683 0001481  78.5786 281.5372 15.08825595 88238,6917.924,95.438,540.814,538.765,0.0
52658.0,STARLINK-4082,PAYLOAD,2023-12-16 19:16:32,15.08839787,0.0001586,53.2164,207.8024,73.2602,286.8565,9.9424e-05,1.295e-05,0.0,0 STARLINK-4082,1 52658U 22053C   23350.80314986  .00001295  00000-0  99424-4 0  9999,2 52658  53.2164 207.8024 0001586  73.2602 286.8565 15.08839787 88363,6917.881,95.438,540.843,538.649,0.0
52658.0,STARLINK-4082,PAYLOAD,2023-12-16 20:51:55,15.08839815,0.0001604,53.2163,207.5052,72.4141,287.7026,9.7807e-05,1.269e-05,0.0,0 STARLINK-4082,1 52658U 22053C   23350.86938961  .00001269  00000-0  97807-4 0  9994,2 52658  53.2163 207.5052 0001604  72.4141 287.7026 15.08839815 88375,6917.881,95.438,540.856,538.636,0.0
52658.0,STARLINK-4082,PAYLOAD,2023-12-17 20:42:42,15.08842732,0.0001602,53.2163,203.0437,74.8999,285.217,0.00017934,2.568e-05,0.0,0 STARLINK-4082,1 52658U 22053C   23351.86298922  .00002568  00000-0  17934-3 0  9996,2 52658  53.2163 203.0437 0001602  74.8999 285.2170 15.08842732 88520,6917.872,95.437,540.845,538.629,0.0
52658.0,STARLINK-4082,PAYLOAD,2023-12-18 20:33:29,15.08845356,0.0001483,53.2161,198.5814,96.9257,263.1903,6.1096e-05,6.85e-06,0.0,0 STARLINK-4082,1 52658U 22053C   23352.85658695  .00000685  00000-0  61096-4 0  9990,2 52658  53.2161 198.5814 0001483  96.9257 263.1903 15.08845356 88674,6917.864,95.437,540.755,538.703,0.0
52658.0,STARLINK-4082,PAYLOAD,2023-12-19 18:48:53,15.08837685,0.0001503,53.2158,194.4183,104.3585,255.7574,1.9257e-06,-2.57e-06,0.0,0 STARLINK-4082,1 52658U 22053C   23353.78395222 -.00000257  00000-0  19257-5 0  9996,2 52658  53.2158 194.4183 0001503 104.3585 255.7574 15.08837685 88818,6917.887,95.438,540.792,538.713,0.0
52658.0,STARLINK-4082,PAYLOAD,2023-12-19 20:24:16,15.08837206,0.0001479,53.2159,194.1212,101.7661,258.3497,-7.5087e-06,-4.07e-06,0.0,0 STARLINK-4082,1 52658U 22053C   23353.85019274 -.00000407  00000-0 -75087-5 0  9995,2 52658  53.2159 194.1212 0001479 101.7661 258.3497 15.08837206 88820,6917.889,95.438,540.777,538.731,0.0
52658.0,STARLINK-4082,PAYLOAD,2023-12-20 20:15:02,15.08837399,0.0001321,53.2159,189.6604,95.9286,264.1857,1.1188e-06,-2.7e-06,0.0,0 STARLINK-4082,1 52658U 22053C   23354.84378471 -.00000270  00000-0  11188-5 0  9991,2 52658  53.2159 189.6604 0001321  95.9286 264.1857 15.08837399 88971,6917.888,95.438,540.667,538.839,0.0
52658.0,STARLINK-4082,PAYLOAD,2023-12-22 19:56:37,15.0882953,0.0001377,53.2163,180.7382,93.4933,266.6217,0.00010173,1.331e-05,0.0,0 STARLINK-4082,1 52658U 22053C   23356.83099515  .00001331  00000-0  10173-3 0  9990,2 52658  53.2163 180.7382 0001377  93.4933 266.6217 15.08829530 89273,6917.912,95.438,540.73,538.825,0.0
52658.0,STARLINK-4082,PAYLOAD,2023-12-23 19:47:24,15.0884054,0.0001321,53.2163,176.2815,99.8379,260.2762,0.00017562,2.508e-05,0.0,0 STARLINK-4082,1 52658U 22053C   23357.82459209  .00002508  00000-0  17562-3 0  9996,2 52658  53.2163 176.2815 0001321  99.8379 260.2762 15.08840540 89423,6917.879,95.438,540.658,538.83,0.0
52658.0,STARLINK-4082,PAYLOAD,2023-12-24 21:13:34,15.08844889,0.0001358,53.2169,171.5186,94.1704,265.9443,0.00010347,1.359e-05,0.0,0 STARLINK-4082,1 52658U 22053C   23358.88443204  .00001359  00000-0  10347-3 0  9998,2 52658  53.2169 171.5186 0001358  94.1704 265.9443 15.08844889 89583,6917.865,95.437,540.67,538.791,0.0
52658.0,STARLINK-4082,PAYLOAD,2023-12-25 14:42:49,15.08832589,0.0001217,53.2173,168.2464,111.5349,248.5773,0.00020081,2.909e-05,0.0,0 STARLINK-4082,1 52658U 22053C   23359.61307204  .00002909  00000-0  20081-3 0  9997,2 52658  53.2173 168.2464 0001217 111.5349 248.5773 15.08832589 89692,6917.903,95.438,540.61,538.926,0.0
52658.0,STARLINK-4082,PAYLOAD,2023-12-25 21:04:21,15.0885262,0.0001364,53.2173,167.057,103.1263,256.9881,-1.6654e-05,-5.53e-06,0.0,0 STARLINK-4082,1 52658U 22053C   23359.87802696 -.00000553  00000-0 -16654-4 0  9997,2 52658  53.2173 167.0570 0001364 103.1263 256.9881 15.08852620 89738,6917.842,95.437,540.65,538.763,0.0
52658.0,STARLINK-4082,PAYLOAD,2023-12-26 14:33:36,15.08835562,0.000129,53.2174,163.7851,115.9036,244.2089,1.7644e-05,-7e-08,0.0,0 STARLINK-4082,1 52658U 22053C   23360.60667542 -.00000007  00000-0  17644-4 0  9992,2 52658  53.2174 163.7851 0001290 115.9036 244.2089 15.08835562 89849,6917.894,95.438,540.651,538.867,0.0
52658.0,STARLINK-4082,PAYLOAD,2023-12-26 17:44:22,15.08838357,0.0001317,53.2174,163.1903,117.4694,242.6432,5.1886e-06,-2.05e-06,0.0,0 STARLINK-4082,1 52658U 22053C   23360.73915408 -.00000205  00000-0  51886-5 0  9990,2 52658  53.2174 163.1903 0001317 117.4694 242.6432 15.08838357 89869,6917.885,95.438,540.661,538.839,0.0
52658.0,STARLINK-4082,PAYLOAD,2023-12-26 20:55:09,15.08834944,0.0001244,53.2168,162.5977,104.4211,255.6919,-1.6771e-06,-3.15e-06,0.0,0 STARLINK-4082,1 52658U 22053C   23360.87163710 -.00000315  00000-0 -16771-5 0  9993,2 52658  53.2168 162.5977 0001244 104.4211 255.6919 15.08834944 89880,6917.896,95.438,540.621,538.9,0.0
52658.0,STARLINK-4082,PAYLOAD,2023-12-27 14:24:23,15.08843209,0.00013,53.2168,159.3272,93.6952,266.4189,3.6405e-05,2.92e-06,0.0,0 STARLINK-4082,1 52658U 22053C   23361.60027169  .00000292  00000-0  36405-4 0  9999,2 52658  53.2168 159.3272 0001300  93.6952 266.4189 15.08843209 89991,6917.871,95.437,540.635,538.836,0.0
52658.0,STARLINK-4082,PAYLOAD,2023-12-27 20:45:55,15.08843827,0.0001297,53.2164,158.1393,84.5337,275.5804,6.2688e-05,7.1e-06,0.0,0 STARLINK-4082,1 52658U 22053C   23361.86523019  .00000710  00000-0  62688-4 0  9999,2 52658  53.2164 158.1393 0001297  84.5337 275.5804 15.08843827 90037,6917.869,95.437,540.631,538.836,0.0
52658.0,STARLINK-4082,PAYLOAD,2023-12-28 14:15:10,15.08902502,0.0001034,53.2173,154.8661,71.7746,288.3359,-0.00081677,-0.00013285,0.0,0 STARLINK-4082,1 52658U 22053C   23362.59386987 -.00013285  00000-0 -81677-3 0  9992,2 52658  53.2173 154.8661 0001034  71.7746 288.3359 15.08902502 90144,6917.689,95.434,540.27,538.839,0.0
52658.0,STARLINK-4082,PAYLOAD,2023-12-28 15:50:33,15.0888562,0.0001091,53.2173,154.5686,78.3721,281.7394,-0.00061739,-0.00010112,0.0,0 STARLINK-4082,1 52658U 22053C   23362.66011079 -.00010112  00000-0 -61739-3 0  9990,2 52658  53.2173 154.5686 0001091  78.3721 281.7394 15.08885620 90155,6917.741,95.435,540.361,538.851,0.0
52658.0,STARLINK-4082,PAYLOAD,2023-12-29 10:55:12,15.08852493,0.0001209,53.2171,151.0007,81.4226,278.6903,-0.0002225,-3.828e-05,0.0,0 STARLINK-4082,1 52658U 22053C   23363.45500114 -.00003828  00000-0 -22250-3 0  9992,2 52658  53.2171 151.0007 0001209  81.4226 278.6903 15.08852493 90274,6917.842,95.437,540.544,538.871,0.0
